LEMUR-2-JK0903EM1407    
1 58336U 23174CJ  26064.72575916  .00029649  00000+0  59891-3 0  9996
2 58336  97.3925 152.7243 0006234 128.9049 231.2757 15.46430929129714
LEMUR-2-MJR092620       
1 58340U 23174CN  26064.74412164  .00015604  00000+0  36735-3 0  9996
2 58340  97.3992 153.1186 0008117 126.9739 233.2252 15.42006698129697
LEMUR-2-NIMBUS2000      
1 58899U 24022A   26064.65417635  .00021622  00000+0  60561-3 0  9997
2 58899  97.4226 273.5310 0010480 126.2084 234.0131 15.36587788116356
LEMUR-2-VALHALLA        
1 58900U 24022B   26064.56757155  .00020778  00000+0  58648-3 0  9998
2 58900  97.4223 273.4788 0011078 122.3848 237.8469 15.36347625116341
LEMUR-2-OBA-NI-JESU     
1 58902U 24022D   26064.57495938  .00105683  00000+0  10902-2 0  9998
2 58902  97.4060 282.4241 0005096  83.4339 276.7500 15.64447647116952
LEMUR-2-CAEL            
1 58903U 24022E   26064.52824370  .00022008  00000+0  59909-3 0  9990
2 58903  97.4213 274.2063 0009427 106.9855 253.2423 15.37482559116393
LEMUR-2-JOHNNYTRUONG    
1 59146U 24043BA  26064.78619468  .00040153  00000+0  64837-3 0  9998
2 59146  97.5258 210.7630 0005371 197.2949 162.8121 15.52765991111957
LEMUR-2-TOMATOKECHUP    
1 60471U 24149D   26064.71238669  .00014751  00000+0  45572-3 0  9991
2 60471  97.3852 146.6557 0001094 196.8150 163.3056 15.33630523 86292
LEMUR-2-STELLA          
1 60533U 24149BT  26064.74898021  .00015373  00000+0  96625-3 0  9993
2 60533  97.6783 146.9301 0001658  95.5454 264.5964 15.09334145 84884
LEMUR-2-MARHISYAM       
1 60536U 24149BW  26064.69527938  .00015472  00000+0  98432-3 0  9994
2 60536  97.6926 147.2116 0003402 115.7232 244.4348 15.08884410 84867
LEMUR-2-AHMED-ASRAR     
1 60576U 24149DN  26064.69121418  .00014629  00000+0  89708-3 0  9990
2 60576  97.7038 148.9197 0002102  37.6050 322.5325 15.10247855 84939
LEMUR-2-LLOYD           
1 60577U 24149DP  26064.74197007  .00013477  00000+0  90146-3 0  9992
2 60577  97.6800 145.9681 0005356 133.4879 226.6795 15.07061265 84805
LEMUR-2-SQUIRRELCOMM    
1 60578U 24149DQ  26064.70709912  .00009923  00000+0  68802-3 0  9998
2 60578  97.6757 146.0304 0006120  53.3686 306.8102 15.05801114 84825
LEMUR-2-SIERRINI        
1 60579U 24149DR  26064.69659688  .00015575  00000+0  99970-3 0  9991
2 60579  97.6888 147.0048 0006235 161.0262 199.1200 15.08546315 84847
LEMUR-2-WILSON          
1 62694U 25009CP  26064.74825071  .00003770  00000+0  35302-3 0  9997
2 62694  97.7076 145.0465 0003716  44.5568 315.5951 14.94649053 61909
LEMUR-2-STAR-FOX        
1 62696U 25009CR  26064.74571205  .00012605  00000+0  99653-3 0  9992
2 62696  97.7054 147.2224 0002299 161.6003 198.5304 15.00786070 62039
